{"type": "FeatureCollection", "features": [ {"type": "Feature", "properties": {"norad_id": 33867, "name": "IRIDIUM 33 DEB", "group": "iridium-33-debris", "lat": -47.265349135472476, "lon": 175.3471363069149, "alt_km": 392.89546614661595, "timestamp": "2025-12-10T05:46:14.210776+00:00", "meta": {"OBJECT_NAME": "IRIDIUM 33 DEB", "OBJECT_ID": "1997-051AL", "EPOCH": "2025-12-09T11:53:31.735680", "MEAN_MOTION": 15.61827995, "ECCENTRICITY": 0.00131638, "INCLINATION": 86.3636, "RA_OF_ASC_NODE": 351.7835, "ARG_OF_PERICENTER": 91.8218, "MEAN_ANOMALY": 268.4555, "EPHEMERIS_TYPE": 0, "CLASSIFICATION_TYPE": "U", "NORAD_CAT_ID": 33867, "ELEMENT_SET_NO": 999, "REV_AT_EPOCH": 89460, "BSTAR": 0.0081006888, "MEAN_MOTION_DOT": 0.00770772, "MEAN_MOTION_DDOT": 0}, "tle": {"line1": "1 33867U 97051AL  25343.49550620  .00770772  00000+0  81007-2 0  9994", "line2": "2 33867  86.3636 351.7835 0013163  91.8218 268.4555 15.61827995894601"}}, "geometry": {"type": "Point", "coordinates": [175.3471363069149, -47.265349135472476]}}, {"type": "Feature", "properties": {"norad_id": 33870, "name": "IRIDIUM 33 DEB", "group": "iridium-33-debris", "lat": -73.75646845240196, "lon": 46.76329566974206, "alt_km": 749.1859063819556, "timestamp": "2025-12-10T05:46:14.210787+00:00", "meta": {"OBJECT_NAME": "IRIDIUM 33 DEB", "OBJECT_ID": "1997-051AP", "EPOCH": "2025-12-09T15:56:18.830112", "MEAN_MOTION": 14.45825924, "ECCENTRICITY": 0.0021132, "INCLINATION": 86.3746, "RA_OF_ASC_NODE": 59.579, "ARG_OF_PERICENTER": 188.1728, "MEAN_ANOMALY": 339.5682, "EPHEMERIS_TYPE": 0, "CLASSIFICATION_TYPE": "U", "NORAD_CAT_ID": 33870, "ELEMENT_SET_NO": 999, "REV_AT_EPOCH": 88092, "BSTAR": 0.0013243, "MEAN_MOTION_DOT": 4.731e-05, "MEAN_MOTION_DDOT": 0}, "tle": {"line1": "1 33870U 97051AP  25343.66410683  .00004731  00000+0  13243-2 0  9993", "line2": "2 33870  86.3746  59.5790 0021132 188.1728 339.5682 14.45825924880923"}}, "geometry": {"type": "Point", "coordinates": [46.76329566974206, -73.75646845240196]}}, {"type": "Feature", "properties": {"norad_id": 33881, "name": "IRIDIUM 33 DEB", "group": "iridium-33-debris", "lat": 56.97736087465895, "lon": 113.40721000033918, "alt_km": 724.1863720139063, "timestamp": "2025-12-10T05:46:14.210798+00:00", "meta": {"OBJECT_NAME": "IRIDIUM 33 DEB", "OBJECT_ID": "1997-051BA", "EPOCH": "2025-12-09T10:01:33.652704", "MEAN_MOTION": 14.56473135, "ECCENTRICITY": 0.00614296, "INCLINATION": 86.3869, "RA_OF_ASC_NODE": 108.1859, "ARG_OF_PERICENTER": 185.4197, "MEAN_ANOMALY": 241.4979, "EPHEMERIS_TYPE": 0, "CLASSIFICATION_TYPE": "U", "NORAD_CAT_ID": 33881, "ELEMENT_SET_NO": 999, "REV_AT_EPOCH": 87452, "BSTAR": 0.0028428363, "MEAN_MOTION_DOT": 0.00012995, "MEAN_MOTION_DDOT": 0}, "tle": {"line1": "1 33881U 97051BA  25343.41775061  .00012995  00000+0  28428-2 0  9994", "line2": "2 33881  86.3869 108.1859 0061429 185.4197 241.4979 14.56473135874525"}}, "geometry": {"type": "Point", "coordinates": [113.40721000033918, 56.97736087465895]}}, {"type": "Feature", "properties": {"norad_id": 33884, "name": "IRIDIUM 33 DEB", "group": "iridium-33-debris", "lat": 2.795582612062743, "lon": -169.23137626923943, "alt_km": 646.8891864598208, "timestamp": "2025-12-10T05:46:14.210809+00:00", "meta": {"OBJECT_NAME": "IRIDIUM 33 DEB", "OBJECT_ID": "1997-051BD", "EPOCH": "2025-12-09T13:25:33.041280", "MEAN_MOTION": 14.77329371, "ECCENTRICITY": 0.0010012, "INCLINATION": 86.3692, "RA_OF_ASC_NODE": 11.2536, "ARG_OF_PERICENTER": 335.9245, "MEAN_ANOMALY": 181.5662, "EPHEMERIS_TYPE": 0, "CLASSIFICATION_TYPE": "U", "NORAD_CAT_ID": 33884, "ELEMENT_SET_NO": 999, "REV_AT_EPOCH": 88800, "BSTAR": 0.0018735, "MEAN_MOTION_DOT": 0.00013349, "MEAN_MOTION_DDOT": 0}, "tle": {"line1": "1 33884U 97051BD  25343.55941020  .00013349  00000+0  18735-2 0  9996", "line2": "2 33884  86.3692  11.2536 0010012 335.9245 181.5662 14.77329371888002"}}, "geometry": {"type": "Point", "coordinates": [-169.23137626923943, 2.795582612062743]}}, {"type": "Feature", "properties": {"norad_id": 33886, "name": "IRIDIUM 33 DEB", "group": "iridium-33-debris", "lat": 65.53701584594721, "lon": -119.71134113184716, "alt_km": 771.6831431993432, "timestamp": "2025-12-10T05:46:14.210821+00:00", "meta": {"OBJECT_NAME": "IRIDIUM 33 DEB", "OBJECT_ID": "1997-051BF", "EPOCH": "2025-12-09T16:36:59.965344", "MEAN_MOTION": 14.3604679, "ECCENTRICITY": 0.0012144, "INCLINATION": 86.383, "RA_OF_ASC_NODE": 68.5113, "ARG_OF_PERICENTER": 253.4909, "MEAN_ANOMALY": 269.1065, "EPHEMERIS_TYPE": 0, "CLASSIFICATION_TYPE": "U", "NORAD_CAT_ID": 33886, "ELEMENT_SET_NO": 999, "REV_AT_EPOCH": 88008, "BSTAR": 0.00035992, "MEAN_MOTION_DOT": 1.066e-05, "MEAN_MOTION_DDOT": 0}, "tle": {"line1": "1 33886U 97051BF  25343.69236071  .00001066  00000+0  35992-3 0  9994", "line2": "2 33886  86.3830  68.5113 0012144 253.4909 269.1065 14.36046790880089"}}, "geometry": {"type": "Point", "coordinates": [-119.71134113184716, 65.53701584594721]}}, {"type": "Feature", "properties": {"norad_id": 33887, "name": "IRIDIUM 33 DEB", "group": "iridium-33-debris", "lat": 39.833399749724904, "lon": 7.559942997188893, "alt_km": 767.5367890122989, "timestamp": "2025-12-10T05:46:14.210831+00:00", "meta": {"OBJECT_NAME": "IRIDIUM 33 DEB", "OBJECT_ID": "1997-051BG", "EPOCH": "2025-12-09T07:58:22.365120", "MEAN_MOTION": 14.37216828, "ECCENTRICITY": 0.0004194, "INCLINATION": 86.3047, "RA_OF_ASC_NODE": 4.8609, "ARG_OF_PERICENTER": 242.0671, "MEAN_ANOMALY": 141.6982, "EPHEMERIS_TYPE": 0, "CLASSIFICATION_TYPE": "U", "NORAD_CAT_ID": 33887, "ELEMENT_SET_NO": 999, "REV_AT_EPOCH": 88116, "BSTAR": 0.00025793, "MEAN_MOTION_DOT": 7.87e-06, "MEAN_MOTION_DDOT": 0}, "tle": {"line1": "1 33887U 97051BG  25343.33220330  .00000787  00000+0  25793-3 0  9994", "line2": "2 33887  86.3047   4.8609 0004194 242.0671 141.6982 14.37216828881163"}}, "geometry": {"type": "Point", "coordinates": [7.559942997188893, 39.833399749724904]}}, {"type": "Feature", "properties": {"norad_id": 33953, "name": "IRIDIUM 33 DEB", "group": "iridium-33-debris", "lat": 85.31887008683002, "lon": -175.6948003335851, "alt_km": 688.4696408579466, "timestamp": "2025-12-10T05:46:14.210842+00:00", "meta": {"OBJECT_NAME": "IRIDIUM 33 DEB", "OBJECT_ID": "1997-051BN", "EPOCH": "2025-12-09T11:16:25.701888", "MEAN_MOTION": 14.55272572, "ECCENTRICITY": 0.00184804, "INCLINATION": 86.384, "RA_OF_ASC_NODE": 55.1984, "ARG_OF_PERICENTER": 112.7861, "MEAN_ANOMALY": 265.1429, "EPHEMERIS_TYPE": 0, "CLASSIFICATION_TYPE": "U", "NORAD_CAT_ID": 33953, "ELEMENT_SET_NO": 999, "REV_AT_EPOCH": 88256, "BSTAR": 0.0018147689, "MEAN_MOTION_DOT": 7.899e-05, "MEAN_MOTION_DDOT": 0}, "tle": {"line1": "1 33953U 97051BN  25343.46974192  .00007899  00000+0  18148-2 0  9990", "line2": "2 33953  86.3840  55.1984 0018480 112.7861 265.1429 14.55272572882561"}}, "geometry": {"type": "Point", "coordinates": [-175.6948003335851, 85.31887008683002]}}, {"type": "Feature", "properties": {"norad_id": 33960, "name": "IRIDIUM 33 DEB", "group": "iridium-33-debris", "lat": -10.487054346686124, "lon": -70.002430610018, "alt_km": 616.8069370060184, "timestamp": "2025-12-10T05:46:14.210852+00:00", "meta": {"OBJECT_NAME": "IRIDIUM 33 DEB", "OBJECT_ID": "1997-051BV", "EPOCH": "2025-12-09T20:12:56.328768", "MEAN_MOTION": 14.84936336, "ECCENTRICITY": 0.0007341, "INCLINATION": 86.2533, "RA_OF_ASC_NODE": 290.8802, "ARG_OF_PERICENTER": 66.8511, "MEAN_ANOMALY": 315.9506, "EPHEMERIS_TYPE": 0, "CLASSIFICATION_TYPE": "U", "NORAD_CAT_ID": 33960, "ELEMENT_SET_NO": 999, "REV_AT_EPOCH": 88824, "BSTAR": 0.0044424, "MEAN_MOTION_DOT": 0.00038025, "MEAN_MOTION_DDOT": 0}, "tle": {"line1": "1 33960U 97051BV  25343.84231862  .00038025  00000+0  44424-2 0  9991", "line2": "2 33960  86.2533 290.8802 0007341  66.8511 315.9506 14.84936336888247"}}, "geometry": {"type": "Point", "coordinates": [-70.002430610018, -10.487054346686124]}}, {"type": "Feature", "properties": {"norad_id": 33966, "name": "IRIDIUM 33 DEB", "group": "iridium-33-debris", "lat": -86.3522860299183, "lon": -34.64914628001957, "alt_km": 733.0861037806444, "timestamp": "2025-12-10T05:46:14.210863+00:00", "meta": {"OBJECT_NAME": "IRIDIUM 33 DEB", "OBJECT_ID": "1997-051CB", "EPOCH": "2025-12-09T14:14:54.064320", "MEAN_MOTION": 14.49574792, "ECCENTRICITY": 0.0007042, "INCLINATION": 86.3923, "RA_OF_ASC_NODE": 47.3773, "ARG_OF_PERICENTER": 198.8596, "MEAN_ANOMALY": 298.6433, "EPHEMERIS_TYPE": 0, "CLASSIFICATION_TYPE": "U", "NORAD_CAT_ID": 33966, "ELEMENT_SET_NO": 999, "REV_AT_EPOCH": 88396, "BSTAR": 0.00091737, "MEAN_MOTION_DOT": 3.54e-05, "MEAN_MOTION_DDOT": 0}, "tle": {"line1": "1 33966U 97051CB  25343.59368130  .00003540  00000+0  91737-3 0  9992", "line2": "2 33966  86.3923  47.3773 0007042 198.8596 298.6433 14.49574792883961"}}, "geometry": {"type": "Point", "coordinates": [-34.64914628001957, -86.3522860299183]}}, {"type": "Feature", "properties": {"norad_id": 34071, "name": "IRIDIUM 33 DEB", "group": "iridium-33-debris", "lat": -22.150744127768892, "lon": 17.423760827968078, "alt_km": 737.9293107595877, "timestamp": "2025-12-10T05:46:14.210873+00:00", "meta": {"OBJECT_NAME": "IRIDIUM 33 DEB", "OBJECT_ID": "1997-051CE", "EPOCH": "2025-12-09T19:55:54.192576", "MEAN_MOTION": 14.49445714, "ECCENTRICITY": 0.0009831, "INCLINATION": 86.3456, "RA_OF_ASC_NODE": 19.0927, "ARG_OF_PERICENTER": 115.3315, "MEAN_ANOMALY": 244.8909, "EPHEMERIS_TYPE": 0, "CLASSIFICATION_TYPE": "U", "NORAD_CAT_ID": 34071, "ELEMENT_SET_NO": 999, "REV_AT_EPOCH": 88292, "BSTAR": 0.00098313, "MEAN_MOTION_DOT": 3.783e-05, "MEAN_MOTION_DDOT": 0}, "tle": {"line1": "1 34071U 97051CE  25343.83048834  .00003783  00000+0  98313-3 0  9999", "line2": "2 34071  86.3456  19.0927 0009831 115.3315 244.8909 14.49445714882925"}}, "geometry": {"type": "Point", "coordinates": [17.423760827968078, -22.150744127768892]}}]}